0 EUTE 25C (EUTE W5)
1 27554U 02051A   13281.80529707  .00000132  00000-0  10000-3 0    29
2 27554 000.0391 320.7326 0003043 227.0436 145.2755 01.00272981 39905
0 EUTE 25C (EUTE W5)
1 27554U 02051A   13282.21553686  .00000130  00000-0  10000-3 0    37
2 27554 000.0383 321.5013 0003127 235.0990 284.5374 01.00272628 39918
0 EUTE 25C (EUTE W5)
1 27554U 02051A   13282.81002194  .00000128  00000-0  10000-3 0    44
2 27554 000.0380 323.6622 0003092 229.2715 142.7989 01.00271917 39912
0 EUTE 25C (EUTE W5)
1 27554U 02051A   13283.21850047  .00000127  00000-0  10000-3 0    57
2 27554 000.0375 324.3012 0003262 232.5048 286.3769 01.00271609 39922
0 EUTE 25C (EUTE W5)
1 27554U 02051A   13285.24103600  .00000121  00000-0  10000-3 0    74
2 27554 000.0355 326.5542 0003462 225.4762 301.2362 01.00270564 39945
0 EUTE 25C (EUTE W5)
1 27554U 02051A   13285.78806164  .00000120  00000-0  10000-3 0    88
2 27554 000.0356 328.1002 0003486 217.1871 145.4386 01.00270111 39942
0 EUTE 25C (EUTE W5)
1 27554U 02051A   13286.24845999  .00000119  00000-0  10000-3 0    98
2 27554 000.0349 330.0391 0003338 224.5966 302.2775 01.00269774 39959
0 EUTE 25C (EUTE W5)
1 27554U 02051A   13287.21691872  .00000118  00000-0  10000-3 0   106
2 27554 000.0352 333.9188 0003311 225.8010 286.7763 01.00269369 39968
0 EUTE 25C (EUTE W5)
1 27554U 02051A   13287.26291087  .00000118  00000-0  10000-3 0   116
2 27554 000.0350 332.4113 0003345 225.4517 305.2371 01.00269766 39966
0 EUTE 25C (EUTE W5)
1 27554U 02051A   13287.72753435  .00000118  00000-0  10000-3 0   128
2 27554 000.0374 336.7262 0003315 220.4421 113.6423 01.00269014 39965
0 EUTE 25C (EUTE W5)
1 27554U 02051A   13288.66697589  .00000118  00000-0  10000-3 0   130
2 27554 000.0383 341.5017 0003405 216.9821 091.4346 01.00268483 39978
0 EUTE 25C (EUTE W5)
1 27554U 02051A   13291.83362509  .00000124  00000-0  10000-3 0   142
2 27554 000.0412 351.6883 0003316 207.7852 153.6052 01.00275277 40007
0 EUTE 25C (EUTE W5)
1 27554U 02051A   13293.22518247  .00000127  00000-0  10000-3 0   153
2 27554 000.0430 359.1305 0003140 212.9308 283.3764 01.00277566 40024
0 EUTE 25C (EUTE W5)
1 27554U 02051A   13294.22927119  .00000129  00000-0  10000-3 0   169
2 27554 000.0416 358.2124 0003213 212.5776 287.1235 01.00277288 40030
0 EUTE 25C (EUTE W5)
1 27554U 02051A   13295.24933135  .00000131  00000-0  10000-3 0   171
2 27554 000.0401 357.8465 0003258 215.3675 292.9397 01.00277027 40040
